[{"OBJECT_NAME":"M2 PATHFINDER","OBJECT_ID":"2020-037E","EPOCH":"2026-03-09T11:30:45.742176","MEAN_MOTION":15.04175941,"ECCENTRICITY":0.00124059,"INCLINATION":97.8158,"RA_OF_ASC_NODE":258.5983,"ARG_OF_PERICENTER":127.8041,"MEAN_ANOMALY":232.431,"EPHEMERIS_TYPE":0,"CLASSIFICATION_TYPE":"U","NORAD_CAT_ID":45727,"ELEMENT_SET_NO":999,"REV_AT_EPOCH":31050,"BSTAR":0.00032591881,"MEAN_MOTION_DOT":4.468e-5,"MEAN_MOTION_DDOT":0},{"OBJECT_NAME":"STARLINK-6281","OBJECT_ID":"2023-061AN","EPOCH":"2026-03-09T08:10:22.977408","MEAN_MOTION":15.025368,"ECCENTRICITY":0.00010929,"INCLINATION":42.9998,"RA_OF_ASC_NODE":186.2307,"ARG_OF_PERICENTER":260.1945,"MEAN_ANOMALY":99.8774,"EPHEMERIS_TYPE":0,"CLASSIFICATION_TYPE":"U","NORAD_CAT_ID":56410,"ELEMENT_SET_NO":999,"REV_AT_EPOCH":15685,"BSTAR":1.0743944e-5,"MEAN_MOTION_DOT":-5.8e-7,"MEAN_MOTION_DDOT":0}]
