M2 PATHFINDER           
1 45727U 20037E   26068.47969609  .00004468  00000+0  32592-3 0  9994
2 45727  97.8158 258.5983 0012405 127.8041 232.4310 15.04175941310501
STARLINK-6281           
1 56410U 23061AN  26068.34054372 -.00000058  00000+0  10744-4 0  9991
2 56410  42.9998 186.2307 0001092 260.1945  99.8774 15.02536800156854
